{"type": "FeatureCollection", "features": [ {"type": "Feature", "properties": {"norad_id": 45807, "name": "BEIDOU-3 G3 (C61)", "group": "gnss", "lat": -1.3745999226116004, "lon": -71.22827411370329, "alt_km": 35786.00666589806, "timestamp": "2025-12-27T05:29:39.446462+00:00", "meta": {"OBJECT_NAME": "BEIDOU-3 G3 (C61)", "OBJECT_ID": "2020-040A", "EPOCH": "2025-12-26T22:07:13.837152", "MEAN_MOTION": 1.00266424, "ECCENTRICITY": 0.00065872, "INCLINATION": 2.0233, "RA_OF_ASC_NODE": 66.7, "ARG_OF_PERICENTER": 308.2917, "MEAN_ANOMALY": 162.9749, "EPHEMERIS_TYPE": 0, "CLASSIFICATION_TYPE": "U", "NORAD_CAT_ID": 45807, "ELEMENT_SET_NO": 999, "REV_AT_EPOCH": 2034, "BSTAR": 0, "MEAN_MOTION_DOT": -3.32e-06, "MEAN_MOTION_DDOT": 0}, "tle": {"line1": "1 45807U 20040A   25360.92168793 -.00000332  00000+0  00000+0 0  9998", "line2": "2 45807   2.0233  66.7000 0006587 308.2917 162.9749  1.00266424 20343"}}, "geometry": {"type": "Point", "coordinates": [-71.22827411370329, -1.3745999226116004]}}, {"type": "Feature", "properties": {"norad_id": 45854, "name": "GPS BIII-3  (PRN 23)", "group": "gnss", "lat": 5.317831886156301, "lon": 39.16092238292445, "alt_km": 20335.66039637566, "timestamp": "2025-12-27T05:29:39.446475+00:00", "meta": {"OBJECT_NAME": "GPS BIII-3  (PRN 23)", "OBJECT_ID": "2020-041A", "EPOCH": "2025-12-26T05:40:05.983104", "MEAN_MOTION": 2.00561528, "ECCENTRICITY": 0.0060682, "INCLINATION": 56.556, "RA_OF_ASC_NODE": 35.6606, "ARG_OF_PERICENTER": 203.8008, "MEAN_ANOMALY": 165.623, "EPHEMERIS_TYPE": 0, "CLASSIFICATION_TYPE": "U", "NORAD_CAT_ID": 45854, "ELEMENT_SET_NO": 999, "REV_AT_EPOCH": 4057, "BSTAR": 0, "MEAN_MOTION_DOT": -5e-07, "MEAN_MOTION_DDOT": 0}, "tle": {"line1": "1 45854U 20041A   25360.23618036 -.00000050  00000+0  00000+0 0  9992", "line2": "2 45854  56.5560  35.6606 0060682 203.8008 165.6230  2.00561528 40572"}}, "geometry": {"type": "Point", "coordinates": [39.16092238292445, 5.317831886156301]}}, {"type": "Feature", "properties": {"norad_id": 46114, "name": "GALAXY 30 (WAAS/PRN 135)", "group": "gnss", "lat": 0.017191496787927488, "lon": 53.38488750920311, "alt_km": 35793.68406126573, "timestamp": "2025-12-27T05:29:39.446487+00:00", "meta": {"OBJECT_NAME": "GALAXY 30 (WAAS/PRN 135)", "OBJECT_ID": "2020-056C", "EPOCH": "2025-12-26T13:07:40.743840", "MEAN_MOTION": 1.0027099, "ECCENTRICITY": 0.0002392, "INCLINATION": 0.0083, "RA_OF_ASC_NODE": 313.2552, "ARG_OF_PERICENTER": 322.9444, "MEAN_ANOMALY": 251.0088, "EPHEMERIS_TYPE": 0, "CLASSIFICATION_TYPE": "U", "NORAD_CAT_ID": 46114, "ELEMENT_SET_NO": 999, "REV_AT_EPOCH": 1956, "BSTAR": 0, "MEAN_MOTION_DOT": 5.9e-07, "MEAN_MOTION_DDOT": 0}, "tle": {"line1": "1 46114U 20056C   25360.54699935  .00000059  00000+0  00000+0 0  9997", "line2": "2 46114   0.0083 313.2552 0002392 322.9444 251.0088  1.00270990 19567"}}, "geometry": {"type": "Point", "coordinates": [53.38488750920311, 0.017191496787927488]}}, {"type": "Feature", "properties": {"norad_id": 46805, "name": "COSMOS 2547 (705K)", "group": "gnss", "lat": 23.81907007692431, "lon": -149.67048933653436, "alt_km": 19141.96499903071, "timestamp": "2025-12-27T05:29:39.446499+00:00", "meta": {"OBJECT_NAME": "COSMOS 2547 (705K)", "OBJECT_ID": "2020-075A", "EPOCH": "2025-12-26T17:24:00.984960", "MEAN_MOTION": 2.13100163, "ECCENTRICITY": 0.00061039, "INCLINATION": 64.597, "RA_OF_ASC_NODE": 198.2292, "ARG_OF_PERICENTER": 227.5593, "MEAN_ANOMALY": 132.4439, "EPHEMERIS_TYPE": 0, "CLASSIFICATION_TYPE": "U", "NORAD_CAT_ID": 46805, "ELEMENT_SET_NO": 999, "REV_AT_EPOCH": 4023, "BSTAR": 0, "MEAN_MOTION_DOT": 1.16e-06, "MEAN_MOTION_DDOT": 0}, "tle": {"line1": "1 46805U 20075A   25360.72501140  .00000116  00000+0  00000+0 0  9999", "line2": "2 46805  64.5970 198.2292 0006103 227.5593 132.4439  2.13100163 40234"}}, "geometry": {"type": "Point", "coordinates": [-149.67048933653436, 23.81907007692431]}}, {"type": "Feature", "properties": {"norad_id": 46826, "name": "GPS BIII-4  (PRN 14)", "group": "gnss", "lat": -17.584447137373775, "lon": -155.54921591562703, "alt_km": 20304.353695672384, "timestamp": "2025-12-27T05:29:39.446510+00:00", "meta": {"OBJECT_NAME": "GPS BIII-4  (PRN 14)", "OBJECT_ID": "2020-078A", "EPOCH": "2025-12-16T01:06:13.902336", "MEAN_MOTION": 2.00566891, "ECCENTRICITY": 0.0064754, "INCLINATION": 54.0144, "RA_OF_ASC_NODE": 218.2068, "ARG_OF_PERICENTER": 203.3802, "MEAN_ANOMALY": 339.3962, "EPHEMERIS_TYPE": 0, "CLASSIFICATION_TYPE": "U", "NORAD_CAT_ID": 46826, "ELEMENT_SET_NO": 999, "REV_AT_EPOCH": 3783, "BSTAR": 0, "MEAN_MOTION_DOT": 6.7e-07, "MEAN_MOTION_DDOT": 0}, "tle": {"line1": "1 46826U 20078A   25350.04599424  .00000067  00000+0  00000+0 0  9996", "line2": "2 46826  54.0144 218.2068 0064754 203.3802 339.3962  2.00566891 37830"}}, "geometry": {"type": "Point", "coordinates": [-155.54921591562703, -17.584447137373775]}}, {"type": "Feature", "properties": {"norad_id": 48859, "name": "GPS BIII-5  (PRN 11)", "group": "gnss", "lat": 14.761877058817745, "lon": 148.8248728208893, "alt_km": 20161.046029051002, "timestamp": "2025-12-27T05:29:39.446523+00:00", "meta": {"OBJECT_NAME": "GPS BIII-5  (PRN 11)", "OBJECT_ID": "2021-054A", "EPOCH": "2025-12-08T04:14:32.423424", "MEAN_MOTION": 2.00553627, "ECCENTRICITY": 0.0024678, "INCLINATION": 55.2581, "RA_OF_ASC_NODE": 340.1367, "ARG_OF_PERICENTER": 233.3993, "MEAN_ANOMALY": 212.8594, "EPHEMERIS_TYPE": 0, "CLASSIFICATION_TYPE": "U", "NORAD_CAT_ID": 48859, "ELEMENT_SET_NO": 999, "REV_AT_EPOCH": 3292, "BSTAR": 0, "MEAN_MOTION_DOT": -8.6e-07, "MEAN_MOTION_DDOT": 0}, "tle": {"line1": "1 48859U 21054A   25342.17676416 -.00000086  00000+0  00000+0 0  9993", "line2": "2 48859  55.2581 340.1367 0024678 233.3993 212.8594  2.00553627 32922"}}, "geometry": {"type": "Point", "coordinates": [148.8248728208893, 14.761877058817745]}}, {"type": "Feature", "properties": {"norad_id": 49336, "name": "QZS-1R (QZSS/PRN 196)", "group": "gnss", "lat": -24.755723866739952, "lon": -60.33273616029415, "alt_km": 33520.57588087127, "timestamp": "2025-12-27T05:29:39.446537+00:00", "meta": {"OBJECT_NAME": "QZS-1R (QZSS/PRN 196)", "OBJECT_ID": "2021-096A", "EPOCH": "2025-12-24T14:02:51.747360", "MEAN_MOTION": 1.00253394, "ECCENTRICITY": 0.0757125, "INCLINATION": 37.101, "RA_OF_ASC_NODE": 82.185, "ARG_OF_PERICENTER": 271.5387, "MEAN_ANOMALY": 84.3648, "EPHEMERIS_TYPE": 0, "CLASSIFICATION_TYPE": "U", "NORAD_CAT_ID": 49336, "ELEMENT_SET_NO": 999, "REV_AT_EPOCH": 1526, "BSTAR": 0, "MEAN_MOTION_DOT": -2.38e-06, "MEAN_MOTION_DDOT": 0}, "tle": {"line1": "1 49336U 21096A   25358.58532115 -.00000238  00000+0  00000+0 0  9998", "line2": "2 49336  37.1010  82.1850 0757125 271.5387  84.3648  1.00253394 15267"}}, "geometry": {"type": "Point", "coordinates": [-60.33273616029415, -24.755723866739952]}}, {"type": "Feature", "properties": {"norad_id": 49809, "name": "GSAT0223 (GALILEO 27)", "group": "gnss", "lat": 49.83403787881917, "lon": 36.082300370480766, "alt_km": 23228.978167024543, "timestamp": "2025-12-27T05:29:39.446550+00:00", "meta": {"OBJECT_NAME": "GSAT0223 (GALILEO 27)", "OBJECT_ID": "2021-116A", "EPOCH": "2025-12-22T17:26:14.878176", "MEAN_MOTION": 1.70475871, "ECCENTRICITY": 0.000441, "INCLINATION": 57.2174, "RA_OF_ASC_NODE": 346.4438, "ARG_OF_PERICENTER": 255.815, "MEAN_ANOMALY": 286.3499, "EPHEMERIS_TYPE": 0, "CLASSIFICATION_TYPE": "U", "NORAD_CAT_ID": 49809, "ELEMENT_SET_NO": 999, "REV_AT_EPOCH": 2517, "BSTAR": 0, "MEAN_MOTION_DOT": -6.4e-07, "MEAN_MOTION_DDOT": 0}, "tle": {"line1": "1 49809U 21116A   25356.72656109 -.00000064  00000+0  00000+0 0  9997", "line2": "2 49809  57.2174 346.4438 0004410 255.8150 286.3499  1.70475871 25171"}}, "geometry": {"type": "Point", "coordinates": [36.082300370480766, 49.83403787881917]}}, {"type": "Feature", "properties": {"norad_id": 49810, "name": "GSAT0224 (GALILEO 28)", "group": "gnss", "lat": 1.7158964154883207, "lon": 165.20486624225046, "alt_km": 23220.69447511237, "timestamp": "2025-12-27T05:29:39.446561+00:00", "meta": {"OBJECT_NAME": "GSAT0224 (GALILEO 28)", "OBJECT_ID": "2021-116B", "EPOCH": "2025-12-23T03:00:59.528736", "MEAN_MOTION": 1.70475912, "ECCENTRICITY": 0.00037519, "INCLINATION": 57.2181, "RA_OF_ASC_NODE": 346.4317, "ARG_OF_PERICENTER": 260.8078, "MEAN_ANOMALY": 278.9053, "EPHEMERIS_TYPE": 0, "CLASSIFICATION_TYPE": "U", "NORAD_CAT_ID": 49810, "ELEMENT_SET_NO": 999, "REV_AT_EPOCH": 2520, "BSTAR": 0, "MEAN_MOTION_DOT": -6.3e-07, "MEAN_MOTION_DDOT": 0}, "tle": {"line1": "1 49810U 21116B   25357.12568899 -.00000063  00000+0  00000+0 0  9991", "line2": "2 49810  57.2181 346.4317 0003751 260.8078 278.9053  1.70475912 25202"}}, "geometry": {"type": "Point", "coordinates": [165.20486624225046, 1.7158964154883207]}}, {"type": "Feature", "properties": {"norad_id": 52984, "name": "COSMOS 2557 (706K)", "group": "gnss", "lat": -62.52802650222691, "lon": -152.34133708127018, "alt_km": 19103.687833382482, "timestamp": "2025-12-27T05:29:39.446572+00:00", "meta": {"OBJECT_NAME": "COSMOS 2557 (706K)", "OBJECT_ID": "2022-075A", "EPOCH": "2025-12-25T22:50:27.414816", "MEAN_MOTION": 2.13102015, "ECCENTRICITY": 0.00135372, "INCLINATION": 64.4024, "RA_OF_ASC_NODE": 320.5875, "ARG_OF_PERICENTER": 278.4992, "MEAN_ANOMALY": 81.3515, "EPHEMERIS_TYPE": 0, "CLASSIFICATION_TYPE": "U", "NORAD_CAT_ID": 52984, "ELEMENT_SET_NO": 999, "REV_AT_EPOCH": 2702, "BSTAR": 0, "MEAN_MOTION_DOT": -3.5e-07, "MEAN_MOTION_DDOT": 0}, "tle": {"line1": "1 52984U 22075A   25359.95170619 -.00000035  00000+0  00000+0 0  9993", "line2": "2 52984  64.4024 320.5875 0013537 278.4992  81.3515  2.13102015 27029"}}, "geometry": {"type": "Point", "coordinates": [-152.34133708127018, -62.52802650222691]}}]}